[
    {
        "Altitude(m)": 607897.6427325424,
        "Argument of Periapsis(deg)": 0.0,
        "Eccentricity": 0.0,
        "Inclination(deg)": 60.0,
        "Latitude(deg)": -14.293092938932519,
        "Longitude(deg)": -93.38124702776184,
        "Mean Anomaly(deg)": 343.6364,
        "RAAN(deg)": 15.0,
        "Satellite Name": "Test1 87",
        "Satellite Number": 87,
        "Semi-Major Axis(m)": 6980739.136638005,
        "Time(s)": 0
    },
    {
        "Altitude(m)": 607750.8430585896,
        "Argument of Periapsis(deg)": 0.00010418945913296404,
        "Eccentricity": 0.0,
        "Inclination(deg)": 60.0,
        "Latitude(deg)": -13.758934388227003,
        "Longitude(deg)": -93.09417782579075,
        "Mean Anomaly(deg)": 344.2565061454618,
        "RAAN(deg)": 14.999579950860259,
        "Satellite Name": "Test1 87",
        "Satellite Number": 87,
        "Semi-Major Axis(m)": 6980739.136638005,
        "Time(s)": 10
    }
]